[{"OBJECT_NAME":"QIANFAN-69","OBJECT_ID":"2025-016Q","EPOCH":"2026-03-04T12:55:08.627520","MEAN_MOTION":13.5100524,"ECCENTRICITY":0.00179348,"INCLINATION":88.9667,"RA_OF_ASC_NODE":94.4859,"ARG_OF_PERICENTER":107.3957,"MEAN_ANOMALY":252.9157,"EPHEMERIS_TYPE":0,"CLASSIFICATION_TYPE":"U","NORAD_CAT_ID":62799,"ELEMENT_SET_NO":999,"REV_AT_EPOCH":5832,"BSTAR":9.4637256e-5,"MEAN_MOTION_DOT":7.3e-7,"MEAN_MOTION_DDOT":0},{"OBJECT_NAME":"QIANFAN-70","OBJECT_ID":"2025-016R","EPOCH":"2026-03-04T13:18:46.579392","MEAN_MOTION":13.50996992,"ECCENTRICITY":0.00175683,"INCLINATION":88.9688,"RA_OF_ASC_NODE":94.6401,"ARG_OF_PERICENTER":98.921,"MEAN_ANOMALY":261.393,"EPHEMERIS_TYPE":0,"CLASSIFICATION_TYPE":"U","NORAD_CAT_ID":62800,"ELEMENT_SET_NO":999,"REV_AT_EPOCH":5828,"BSTAR":5.6873305e-5,"MEAN_MOTION_DOT":4.9e-7,"MEAN_MOTION_DDOT":0},{"OBJECT_NAME":"QIANFAN-71","OBJECT_ID":"2025-016S","EPOCH":"2026-03-04T13:12:46.178208","MEAN_MOTION":13.50996543,"ECCENTRICITY":0.00178228,"INCLINATION":88.9682,"RA_OF_ASC_NODE":94.615,"ARG_OF_PERICENTER":110.531,"MEAN_ANOMALY":249.7756,"EPHEMERIS_TYPE":0,"CLASSIFICATION_TYPE":"U","NORAD_CAT_ID":62801,"ELEMENT_SET_NO":999,"REV_AT_EPOCH":5828,"BSTAR":7.3078293e-5,"MEAN_MOTION_DOT":5.9e-7,"MEAN_MOTION_DDOT":0},{"OBJECT_NAME":"QIANFAN-72","OBJECT_ID":"2025-016T","EPOCH":"2026-03-04T13:36:28.981440","MEAN_MOTION":13.50996187,"ECCENTRICITY":0.00210125,"INCLINATION":88.9673,"RA_OF_ASC_NODE":94.6186,"ARG_OF_PERICENTER":117.2604,"MEAN_ANOMALY":243.0691,"EPHEMERIS_TYPE":0,"CLASSIFICATION_TYPE":"U","NORAD_CAT_ID":62802,"ELEMENT_SET_NO":999,"REV_AT_EPOCH":5827,"BSTAR":4.5728951e-5,"MEAN_MOTION_DOT":4.2e-7,"MEAN_MOTION_DDOT":0},{"OBJECT_NAME":"QIANFAN-73","OBJECT_ID":"2025-046A","EPOCH":"2026-03-04T14:15:09.440928","MEAN_MOTION":13.5099808,"ECCENTRICITY":0.00131456,"INCLINATION":88.9761,"RA_OF_ASC_NODE":311.5697,"ARG_OF_PERICENTER":246.3608,"MEAN_ANOMALY":113.6163,"EPHEMERIS_TYPE":0,"CLASSIFICATION_TYPE":"U","NORAD_CAT_ID":63159,"ELEMENT_SET_NO":999,"REV_AT_EPOCH":5846,"BSTAR":0.00027050294,"MEAN_MOTION_DOT":1.87e-6,"MEAN_MOTION_DDOT":0},{"OBJECT_NAME":"QIANFAN-74","OBJECT_ID":"2025-046B","EPOCH":"2026-03-04T15:38:11.628672","MEAN_MOTION":13.50997926,"ECCENTRICITY":0.0001895,"INCLINATION":88.9762,"RA_OF_ASC_NODE":311.4525,"ARG_OF_PERICENTER":77.9245,"MEAN_ANOMALY":282.2118,"EPHEMERIS_TYPE":0,"CLASSIFICATION_TYPE":"U","NORAD_CAT_ID":63160,"ELEMENT_SET_NO":999,"REV_AT_EPOCH":5853,"BSTAR":0.00030252952,"MEAN_MOTION_DOT":2.07e-6,"MEAN_MOTION_DDOT":0},{"OBJECT_NAME":"QIANFAN-75","OBJECT_ID":"2025-046C","EPOCH":"2026-03-04T15:19:40.288800","MEAN_MOTION":13.51001719,"ECCENTRICITY":0.00143175,"INCLINATION":88.9764,"RA_OF_ASC_NODE":311.6886,"ARG_OF_PERICENTER":250.001,"MEAN_ANOMALY":109.9599,"EPHEMERIS_TYPE":0,"CLASSIFICATION_TYPE":"U","NORAD_CAT_ID":63161,"ELEMENT_SET_NO":999,"REV_AT_EPOCH":5840,"BSTAR":0.00031254678,"MEAN_MOTION_DOT":2.14e-6,"MEAN_MOTION_DDOT":0},{"OBJECT_NAME":"QIANFAN-76","OBJECT_ID":"2025-046D","EPOCH":"2026-03-04T15:14:23.772768","MEAN_MOTION":13.51014204,"ECCENTRICITY":0.00118684,"INCLINATION":88.9763,"RA_OF_ASC_NODE":311.6689,"ARG_OF_PERICENTER":250.652,"MEAN_ANOMALY":109.3349,"EPHEMERIS_TYPE":0,"CLASSIFICATION_TYPE":"U","NORAD_CAT_ID":63162,"ELEMENT_SET_NO":999,"REV_AT_EPOCH":5841,"BSTAR":0.0003424239,"MEAN_MOTION_DOT":2.33e-6,"MEAN_MOTION_DDOT":0},{"OBJECT_NAME":"QIANFAN-77","OBJECT_ID":"2025-046E","EPOCH":"2026-03-04T14:32:03.610176","MEAN_MOTION":13.96173872,"ECCENTRICITY":0.00143658,"INCLINATION":88.9758,"RA_OF_ASC_NODE":309.0064,"ARG_OF_PERICENTER":177.6625,"MEAN_ANOMALY":182.4621,"EPHEMERIS_TYPE":0,"CLASSIFICATION_TYPE":"U","NORAD_CAT_ID":63163,"ELEMENT_SET_NO":999,"REV_AT_EPOCH":5987,"BSTAR":0.0003228216,"MEAN_MOTION_DOT":4.57e-6,"MEAN_MOTION_DDOT":0},{"OBJECT_NAME":"QIANFAN-78","OBJECT_ID":"2025-046F","EPOCH":"2026-03-04T14:27:00.842976","MEAN_MOTION":13.50998239,"ECCENTRICITY":0.00131966,"INCLINATION":88.9762,"RA_OF_ASC_NODE":311.5356,"ARG_OF_PERICENTER":253.4708,"MEAN_ANOMALY":106.4994,"EPHEMERIS_TYPE":0,"CLASSIFICATION_TYPE":"U","NORAD_CAT_ID":63164,"ELEMENT_SET_NO":999,"REV_AT_EPOCH":5848,"BSTAR":0.00032920585,"MEAN_MOTION_DOT":2.25e-6,"MEAN_MOTION_DDOT":0},{"OBJECT_NAME":"QIANFAN-79","OBJECT_ID":"2025-046G","EPOCH":"2026-03-04T15:08:42.116928","MEAN_MOTION":13.51008389,"ECCENTRICITY":0.0013054,"INCLINATION":88.9766,"RA_OF_ASC_NODE":311.6433,"ARG_OF_PERICENTER":251.582,"MEAN_ANOMALY":108.3912,"EPHEMERIS_TYPE":0,"CLASSIFICATION_TYPE":"U","NORAD_CAT_ID":63165,"ELEMENT_SET_NO":999,"REV_AT_EPOCH":5843,"BSTAR":0.00030945314,"MEAN_MOTION_DOT":2.12e-6,"MEAN_MOTION_DDOT":0},{"OBJECT_NAME":"QIANFAN-80","OBJECT_ID":"2025-046H","EPOCH":"2026-03-04T15:32:09.577248","MEAN_MOTION":13.50997984,"ECCENTRICITY":0.00118862,"INCLINATION":88.9762,"RA_OF_ASC_NODE":311.3464,"ARG_OF_PERICENTER":256.3182,"MEAN_ANOMALY":103.6646,"EPHEMERIS_TYPE":0,"CLASSIFICATION_TYPE":"U","NORAD_CAT_ID":63166,"ELEMENT_SET_NO":999,"REV_AT_EPOCH":5859,"BSTAR":0.00029200608,"MEAN_MOTION_DOT":2.01e-6,"MEAN_MOTION_DDOT":0},{"OBJECT_NAME":"QIANFAN-81","OBJECT_ID":"2025-046J","EPOCH":"2026-03-04T15:00:41.107392","MEAN_MOTION":13.50983826,"ECCENTRICITY":0.00129537,"INCLINATION":88.9762,"RA_OF_ASC_NODE":311.4164,"ARG_OF_PERICENTER":243.9555,"MEAN_ANOMALY":116.0263,"EPHEMERIS_TYPE":0,"CLASSIFICATION_TYPE":"U","NORAD_CAT_ID":63167,"ELEMENT_SET_NO":999,"REV_AT_EPOCH":5854,"BSTAR":0.0002698968,"MEAN_MOTION_DOT":1.86e-6,"MEAN_MOTION_DDOT":0},{"OBJECT_NAME":"QIANFAN-82","OBJECT_ID":"2025-046K","EPOCH":"2026-03-04T14:03:20.759616","MEAN_MOTION":13.50999317,"ECCENTRICITY":0.0011014,"INCLINATION":88.9763,"RA_OF_ASC_NODE":311.4646,"ARG_OF_PERICENTER":252.0851,"MEAN_ANOMALY":107.91,"EPHEMERIS_TYPE":0,"CLASSIFICATION_TYPE":"U","NORAD_CAT_ID":63168,"ELEMENT_SET_NO":999,"REV_AT_EPOCH":5852,"BSTAR":0.00027511505,"MEAN_MOTION_DOT":1.9e-6,"MEAN_MOTION_DDOT":0},{"OBJECT_NAME":"QIANFAN-83","OBJECT_ID":"2025-046L","EPOCH":"2026-03-04T14:42:55.899936","MEAN_MOTION":13.62020472,"ECCENTRICITY":0.00124298,"INCLINATION":88.9763,"RA_OF_ASC_NODE":311.0772,"ARG_OF_PERICENTER":229.7094,"MEAN_ANOMALY":130.2978,"EPHEMERIS_TYPE":0,"CLASSIFICATION_TYPE":"U","NORAD_CAT_ID":63169,"ELEMENT_SET_NO":999,"REV_AT_EPOCH":5874,"BSTAR":0.00033223097,"MEAN_MOTION_DOT":2.68e-6,"MEAN_MOTION_DDOT":0},{"OBJECT_NAME":"QIANFAN-84","OBJECT_ID":"2025-046M","EPOCH":"2026-03-04T14:43:22.581120","MEAN_MOTION":13.50961155,"ECCENTRICITY":0.00140253,"INCLINATION":88.976,"RA_OF_ASC_NODE":311.5937,"ARG_OF_PERICENTER":248.2249,"MEAN_ANOMALY":111.741,"EPHEMERIS_TYPE":0,"CLASSIFICATION_TYPE":"U","NORAD_CAT_ID":63170,"ELEMENT_SET_NO":999,"REV_AT_EPOCH":5845,"BSTAR":-0.00014737454,"MEAN_MOTION_DOT":-8.3e-7,"MEAN_MOTION_DDOT":0},{"OBJECT_NAME":"QIANFAN-85","OBJECT_ID":"2025-046N","EPOCH":"2026-03-04T14:38:52.257984","MEAN_MOTION":13.51002053,"ECCENTRICITY":0.00114286,"INCLINATION":88.9762,"RA_OF_ASC_NODE":311.4659,"ARG_OF_PERICENTER":250.7462,"MEAN_ANOMALY":109.2453,"EPHEMERIS_TYPE":0,"CLASSIFICATION_TYPE":"U","NORAD_CAT_ID":63171,"ELEMENT_SET_NO":999,"REV_AT_EPOCH":5852,"BSTAR":0.00029029778,"MEAN_MOTION_DOT":1.99e-6,"MEAN_MOTION_DDOT":0}]
