QIANFAN-69              
1 62799U 25016Q   26063.53829430  .00000073  00000+0  94637-4 0  9990
2 62799  88.9667  94.4859 0017934 107.3957 252.9157 13.51005240 58324
QIANFAN-70              
1 62800U 25016R   26063.55470578  .00000049  00000+0  56873-4 0  9993
2 62800  88.9688  94.6401 0017568  98.9210 261.3930 13.50996992 58285
QIANFAN-71              
1 62801U 25016S   26063.55053447  .00000059  00000+0  73078-4 0  9993
2 62801  88.9682  94.6150 0017822 110.5310 249.7756 13.50996543 58284
QIANFAN-72              
1 62802U 25016T   26063.56700210  .00000042  00000+0  45729-4 0  9996
2 62802  88.9673  94.6186 0021012 117.2604 243.0691 13.50996187 58278
QIANFAN-73              
1 63159U 25046A   26063.59385927  .00000187  00000+0  27050-3 0  9998
2 63159  88.9761 311.5697 0013145 246.3608 113.6163 13.50998080 58467
QIANFAN-74              
1 63160U 25046B   26063.65152348  .00000207  00000+0  30253-3 0  9998
2 63160  88.9762 311.4525 0001895  77.9245 282.2118 13.50997926 58532
QIANFAN-75              
1 63161U 25046C   26063.63866075  .00000214  00000+0  31255-3 0  9997
2 63161  88.9764 311.6886 0014317 250.0010 109.9599 13.51001719 58405
QIANFAN-76              
1 63162U 25046D   26063.63499737  .00000233  00000+0  34242-3 0  9995
2 63162  88.9763 311.6689 0011868 250.6520 109.3349 13.51014204 58417
QIANFAN-77              
1 63163U 25046E   26063.60559734  .00000457  00000+0  32282-3 0  9997
2 63163  88.9758 309.0064 0014365 177.6625 182.4621 13.96173872 59871
QIANFAN-78              
1 63164U 25046F   26063.60209309  .00000225  00000+0  32921-3 0  9991
2 63164  88.9762 311.5356 0013196 253.4708 106.4994 13.50998239 58482
QIANFAN-79              
1 63165U 25046G   26063.63104302  .00000212  00000+0  30945-3 0  9992
2 63165  88.9766 311.6433 0013054 251.5820 108.3912 13.51008389 58436
QIANFAN-80              
1 63166U 25046H   26063.64733307  .00000201  00000+0  29201-3 0  9998
2 63166  88.9762 311.3464 0011886 256.3182 103.6646 13.50997984 58595
QIANFAN-81              
1 63167U 25046J   26063.62547578  .00000186  00000+0  26990-3 0  9994
2 63167  88.9762 311.4164 0012953 243.9555 116.0263 13.50983826 58544
QIANFAN-82              
1 63168U 25046K   26063.58565694  .00000190  00000+0  27512-3 0  9995
2 63168  88.9763 311.4646 0011014 252.0851 107.9100 13.50999317 58527
QIANFAN-83              
1 63169U 25046L   26063.61314699  .00000268  00000+0  33223-3 0  9999
2 63169  88.9763 311.0772 0012429 229.7094 130.2978 13.62020472 58741
QIANFAN-84              
1 63170U 25046M   26063.61345580 -.00000083  00000+0 -14737-3 0  9990
2 63170  88.9760 311.5937 0014025 248.2249 111.7410 13.50961155 58452
QIANFAN-85              
1 63171U 25046N   26063.61032706  .00000199  00000+0  29030-3 0  9992
2 63171  88.9762 311.4659 0011428 250.7462 109.2453 13.51002053 58525
